STARLINK-32675          
1 62208U 24229S   26068.83226043  .00028259  00000+0  10323-2 0  9993
2 62208  43.0001 269.8674 0001538 270.3608  89.7067 15.27587577 70584
ARCSTONE                
1 64540U 25135N   26068.88991918  .00026427  00000+0  94900-3 0  9995
2 64540  97.4495 185.9194 0004120 166.7863 193.3485 15.28638458 39847
